HALOSAT                 
1 43549U 98067NX  20168.82203010  .00023175  00000-0  16646-3 0  9992
2 43549  51.6351 293.8035 0002644  82.6083 277.5216 15.73527924109714
ENDUROSAT ONE           
1 43551U 98067NZ  20168.79609619  .00043767  00000-0  21612-3 0  9994
2 43551  51.6337 282.2426 0001835  49.4448 310.6714 15.81627144110273
EQUISAT                 
1 43552U 98067PA  20169.35570517  .00024030  00000-0  16592-3 0  9995
2 43552  51.6349 289.1507 0003141  87.2619 272.8740 15.74425804110195
AEROCUBE 12A            
1 43556U 18046C   20168.84874862  .00001342  00000-0  58151-4 0  9990
2 43556  51.6422 108.4634 0007763 296.2176  63.8006 15.29808407107282
AEROCUBE 12B            
1 43557U 18046D   20169.10547471  .00001342  00000-0  58624-4 0  9999
2 43557  51.6423 107.9154 0007828 296.6294  63.3884 15.29525647107261
UITMSAT-1               
1 43589U 98067PD  20169.37915873  .00031221  00000-0  18877-3 0  9993
2 43589  51.6347 286.8680 0001935 108.8228 251.2983 15.77316480105965
MAYA-1                  
1 43590U 98067PE  20168.73843171  .00032031  00000-0  19395-3 0  9991
2 43590  51.6294 290.0848 0001815  93.1754 266.9454 15.77269309105792
BHUTAN-1                
1 43591U 98067PF  20169.34449038  .00033302  00000-0  19964-3 0  9998
2 43591  51.6358 286.7116 0002017 109.3405 250.7814 15.77473970105895
SIRIUSSAT-1             
1 43595U 98067PG  20169.52566304  .00024414  00000-0  16565-3 0  9996
2 43595  51.6306 290.8815 0001466  30.7465 329.3620 15.74824343105039
SIRIUSSAT-2             
1 43596U 98067PH  20168.82592857  .00024995  00000-0  17058-3 0  9993
2 43596  51.6316 295.2854 0001802  34.4324 325.6792 15.74673833104913
TANUSHA-3               
1 43597U 98067PJ  20168.79059429  .00066657  00000-0  26349-3 0  9997
2 43597  51.6281 282.0182 0003024 337.3326  22.7544 15.86147116105080
SURFSAT                 
1 43614U 18070B   20168.88541932  .00002134  00000-0  54986-4 0  9997
2 43614  93.0200 154.3521 0014562 350.6812   9.4170 15.39194449 98397
CP7 (DAVE)              
1 43615U 18070C   20168.59169001  .00002061  00000-0  53368-4 0  9991
2 43615  93.0202 154.2212 0014753 351.2767   8.8229 15.39047945 98345
ELFIN-B                 
1 43616U 18070D   20169.08764988  .00002788  00000-0  68999-4 0  9994
2 43616  93.0160 154.3683 0015029 351.1286   8.9701 15.40400825 98465
ELFIN-A                 
1 43617U 18070E   20169.12103510  .00003310  00000-0  81410-4 0  9993
2 43617  93.0212 154.8936 0014209 348.1587  11.9332 15.40585622 98473
CUBEBEL-1 (BSUSAT-1)    
1 43666U 18083E   20169.57796186  .00000612  00000-0  33143-4 0  9999
2 43666  97.4890 196.0430 0015121   6.4363 145.7887 15.18263132 90639
DEBRISSAT-2             
1 43680U 98067PR  20151.69072398  .11468650  12477-4  51439-3 0  9995
2 43680  51.6154 356.6377 0010832 273.4515  86.5274 16.42437352111263
CICERO 10               
1 43690U 18088A   20169.29549492  .00000626  00000-0  27000-4 0  9996
2 43690  85.0390  78.4279 0013292 317.9234  42.0985 15.20235340 88719
IRVINE01                
1 43693U 18088D   20169.16341294  .00001784  00000-0  74217-4 0  9993
2 43693  85.0361  77.2063 0015705 297.0918  62.8721 15.22883109 88808
PROXIMA I               
1 43694U 18088E   20168.49890405  .00000732  00000-0  30216-4 0  9995
2 43694  85.0332  77.4867 0016968 289.9045  70.0368 15.21975889 88695
PROXIMA II              
1 43696U 18088G   20169.15460801  .00000663  00000-0  27196-4 0  9990
2 43696  85.0334  77.0568 0016987 287.0829  72.8552 15.21978339 88792
FACSAT-1                
1 43721U 18096C   20169.27663125  .00001205  00000-0  47754-4 0  9990
2 43721  97.4205 242.8515 0019093 120.9288 239.3831 15.27227908 86360
CENTAURI-2              
1 43722U 18096D   20169.17144753  .00001508  00000-0  58119-4 0  9994
2 43722  97.4216 243.0219 0019103 121.0547 239.2571 15.27756215 86356
INNOSAT-2               
1 43738U 18096V   20169.52538712  .00002039  00000-0  71514-4 0  9996
2 43738  97.4237 245.3436 0024888 127.0676 233.2846 15.30337295 86544
SIRION PATHFINDER-2     
1 43759U 18099B   20169.44437105 -.00000296  00000-0 -21601-4 0  9994
2 43759  97.7052 241.1049 0014256 177.2886 182.8415 14.95279755 83934
CORVUS-BC 4             
1 43767U 18099K   20169.18471914 -.00000213  00000-0 -14394-4 0  9990
2 43767  97.7032 240.2609 0011719 180.9717 179.1482 14.94724487 83869
MOVE-II                 
1 43780U 18099Y   20168.98914403  .00000079  00000-0  12382-4 0  9990
2 43780  97.7058 240.5878 0013340 190.0129 170.0828 14.95400883 83848
SPACEBEE-7              
1 43816U 18099BL  20168.92857432  .00000193  00000-0  22481-4 0  9990
2 43816  97.7069 240.9196 0013648 174.6855 185.4513 14.95693224 83419
SPACEBEE-5              
1 43817U 18099BM  20168.88219863  .00001304  00000-0  12028-3 0  9996
2 43817  97.7124 241.3185 0013636 173.4761 186.6641 14.96308604 83427
SPACEBEE-6              
1 43818U 18099BN  20169.15965833  .00000738  00000-0  71043-4 0  9996
2 43818  97.7090 241.2855 0013615 172.4614 187.6814 14.95889730 83602
SHIELDS 1               
1 43850U 18104B   20168.80774834  .00000430  00000-0  17290-4 0  9992
2 43850  85.0289 175.7825 0017224  75.1494 285.1653 15.21388393 83379
STF-1                   
1 43852U 18104D   20168.75498035  .00000935  00000-0  39875-4 0  9997
2 43852  85.0332 176.3580 0017079  87.7952 272.5245 15.21284344 83346
ZACUBE-2                
1 43907U 18111AH  20169.51803829  .00000274  00000-0  13885-4 0  9991
2 43907  97.2660  69.2808 0022555 139.8390 220.4520 15.24590014 82028
LUME 1                  
1 43908U 18111AJ  20168.85164962  .00000719  00000-0  31395-4 0  9996
2 43908  97.2661  68.8047 0022250 141.5567 218.7261 15.25038750 81934
AOBA VELOX-IV           
1 43940U 19003J   20169.11606146  .00001328  00000-0  55656-4 0  9991
2 43940  97.2276 220.4070 0022619 221.2643 138.6886 15.25013026 78594
CATSAT-2                
1 44029U 98067PV  20168.93102572  .00013541  00000-0  13890-3 0  9993
2 44029  51.6385 318.6950 0003764  88.6165 271.5262 15.65277434 78447
DELPHINI                
1 44030U 98067PW  20168.88489932  .00015202  00000-0  14928-3 0  9996
2 44030  51.6345 317.5233 0003328  85.6155 274.5221 15.66265111 78425
UNITE                   
1 44031U 98067PX  20168.73236473  .00007613  00000-0  93735-4 0  9992
2 44031  51.6380 325.5804 0003143  78.7152 281.4194 15.61329005 78304
CATSAT-1                
1 44033U 98067PZ  20168.93091523  .00013591  00000-0  13934-3 0  9995
2 44033  51.6388 318.7007 0003698  86.2822 273.8596 15.65287512 78352
RAAVANA-1               
1 44329U 98067QE  20168.74394295  .00008128  00000-0  11322-3 0  9993
2 44329  51.6400 337.7117 0005449   5.0287 355.0759 15.57907071 56897
UGUISU                  
1 44330U 98067QF  20168.75637821  .00007708  00000-0  10806-3 0  9990
2 44330  51.6387 337.7894 0005481   3.6096 356.4935 15.57822495 56878
NEPALISAT-1             
1 44331U 98067QG  20168.73637945  .00008028  00000-0  11181-3 0  9999
2 44331  51.6386 337.6583 0005529   6.8296 353.2770 15.57929748 56884
SPOOQY-1                
1 44332U 98067QH  20168.67562955  .00007907  00000-0  11062-3 0  9994
2 44332  51.6391 338.0000 0004529  10.8409 349.2680 15.57836109 56838
SPACEBEE-9              
1 44370U 19037F   20168.89116354  .00005227  00000-0  12188-3 0  9991
2 44370  45.0061 118.8940 0012485 185.1843 174.8919 15.43433530 54512
SPACEBEE-8              
1 44371U 19037G   20168.57765524  .00011746  00000-0  22892-3 0  9992
2 44371  45.0064 114.8824 0010465 183.6017 176.4800 15.47625245 54534
IOD-1 GEMS              
1 44385U 98067QK  20169.49696414  .00010967  00000-0  13812-3 0  9996
2 44385  51.6403 332.2873 0001902 327.2440  32.8435 15.60192126 54497
MOVE-IIB                
1 44398U 19038N   20169.42014869  .00000750  00000-0  46769-4 0  9999
2 44398  97.5359 130.6511 0026512 125.2190 235.1528 15.12321114 52577
SONATE                  
1 44400U 19038Q   20169.12366454  .00000338  00000-0  23356-4 0  9999
2 44400  97.5398 130.3741 0026576 125.0183 235.3547 15.11954861 52524
LUCKY-7                 
1 44406U 19038W   20169.13940634  .00000360  00000-0  24459-4 0  9994
2 44406  97.5391 130.4932 0025977 124.5993 235.7693 15.12219734 52523
BEESAT 9                
1 44412U 19038AC  20169.40271905  .00000515  00000-0  33357-4 0  9998
2 44412  97.5383 130.7344 0023974 128.9430 231.3942 15.12298928 52262
JAISAT-1                
1 44419U 19038F   20169.42302446  .00000580  00000-0  36642-4 0  9994
2 44419  97.5384 131.0187 0022851 127.9379 232.3921 15.12782124 52593
SWIATOWID               
1 44426U 98067QL  20169.53121257  .00013923  00000-0  16784-3 0  9991
2 44426  51.6412 331.5158 0001977 317.2863 151.1896 15.61082503 54529
KRAKSAT                 
1 44427U 98067QM  20169.46692167  .00005204  00000-0  80317-4 0  9994
2 44427  51.6431 337.2606 0002540 317.8195  72.6703 15.55974899 54483
VCC A                   
1 44428U 98067QN  20167.77370165  .00007360  00000-0  10565-3 0  9990
2 44428  51.6415 344.0248 0001989 338.9100  21.1810 15.57259946 54243
ENTRYSAT                
1 44429U 98067QP  20169.47589812  .00008553  00000-0  11723-3 0  9993
2 44429  51.6396 334.3669 0001776 332.6839  27.4060 15.58269127 54525
VCC C                   
1 44430U 98067QQ  20168.74389811  .00010702  00000-0  13893-3 0  9990
2 44430  51.6390 336.9879 0001635 347.8467  12.2486 15.59416381 53251
VCC B                   
1 44431U 98067QR  20168.86435815  .00007483  00000-0  10708-3 0  9994
2 44431  51.6402 338.5451 0002172 341.2680  18.8232 15.57315127 54359
ATL-1                   
1 44830U 19084G   20168.88577912  .00041190  00000-0  23343-3 0  9998
2 44830  96.9750  38.0387 0024435 234.0760 125.8241 15.78520319 30362
SMOG-P                  
1 44832U 19084J   20169.13632901  .00052380  00000-0  27882-3 0  9994
2 44832  96.9753  38.4614 0023279 230.7213 129.1991 15.79902855 30410
